{
  "type": "FeatureCollection",
  "features": [
    {
      "type": "Feature",
      "properties": {
        "norad_id": 34022,
        "name": "COSMOS 2251 DEB",
        "group": "cosmos-2251-debris",
        "lat": 1.1616795505360207,
        "lon": -78.19253774967312,
        "alt_km": 748.849774154547,
        "timestamp": "2025-12-06T22:38:43.122520+00:00",
        "meta_object_name": "COSMOS 2251 DEB",
        "meta_object_id": "1993-036HH",
        "meta_epoch": "2025-12-06T06:16:48.256896",
        "meta_mean_motion": 14.38947764,
        "meta_eccentricity": 0.00224754,
        "meta_inclination": 74.0539,
        "meta_ra_of_asc_node": 282.7312,
        "meta_arg_of_pericenter": 348.8651,
        "meta_mean_anomaly": 81.5115,
        "meta_ephemeris_type": 0,
        "meta_classification_type": "U",
        "meta_norad_cat_id": 34022,
        "meta_element_set_no": 999,
        "meta_rev_at_epoch": 88102,
        "meta_bstar": 0.00050410646,
        "meta_mean_motion_dot": 1.533e-05,
        "meta_mean_motion_ddot": 0,
        "tle_line1": "1 34022U 93036HH  25340.26166964  .00001533  00000+0  50411-3 0  9991",
        "tle_line2": "2 34022  74.0539 282.7312 0022475 348.8651  81.5115 14.38947764881024"
      },
      "geometry": {
        "type": "Point",
        "coordinates": [
          -78.19253774967312,
          1.1616795505360207
        ]
      }
    },
    {
      "type": "Feature",
      "properties": {
        "norad_id": 34023,
        "name": "COSMOS 2251 DEB",
        "group": "cosmos-2251-debris",
        "lat": -62.4374762764564,
        "lon": 115.75592016245764,
        "alt_km": 768.3342023875812,
        "timestamp": "2025-12-06T22:38:43.122530+00:00",
        "meta_object_name": "COSMOS 2251 DEB",
        "meta_object_id": "1993-036HJ",
        "meta_epoch": "2025-12-06T05:31:43.067712",
        "meta_mean_motion": 14.40537648,
        "meta_eccentricity": 0.00181919,
        "meta_inclination": 74.0249,
        "meta_ra_of_asc_node": 263.7889,
        "meta_arg_of_pericenter": 0.4491,
        "meta_mean_anomaly": 149.8451,
        "meta_ephemeris_type": 0,
        "meta_classification_type": "U",
        "meta_norad_cat_id": 34023,
        "meta_element_set_no": 999,
        "meta_rev_at_epoch": 88120,
        "meta_bstar": 0.00064381072,
        "meta_mean_motion_dot": 2.028e-05,
        "meta_mean_motion_ddot": 0,
        "tle_line1": "1 34023U 93036HJ  25340.23035958  .00002028  00000+0  64381-3 0  9998",
        "tle_line2": "2 34023  74.0249 263.7889 0018191   0.4491 149.8451 14.40537648881204"
      },
      "geometry": {
        "type": "Point",
        "coordinates": [
          115.75592016245764,
          -62.4374762764564
        ]
      }
    },
    {
      "type": "Feature",
      "properties": {
        "norad_id": 34024,
        "name": "COSMOS 2251 DEB",
        "group": "cosmos-2251-debris",
        "lat": 4.121652062990495,
        "lon": -32.20082111796375,
        "alt_km": 761.4667068584477,
        "timestamp": "2025-12-06T22:38:43.122541+00:00",
        "meta_object_name": "COSMOS 2251 DEB",
        "meta_object_id": "1993-036HK",
        "meta_epoch": "2025-12-06T09:56:33.945792",
        "meta_mean_motion": 14.35385319,
        "meta_eccentricity": 0.00207479,
        "meta_inclination": 74.0462,
        "meta_ra_of_asc_node": 327.5877,
        "meta_arg_of_pericenter": 19.9494,
        "meta_mean_anomaly": 130.6524,
        "meta_ephemeris_type": 0,
        "meta_classification_type": "U",
        "meta_norad_cat_id": 34024,
        "meta_element_set_no": 999,
        "meta_rev_at_epoch": 87933,
        "meta_bstar": 0.00037107612,
        "meta_mean_motion_dot": 1.042e-05,
        "meta_mean_motion_ddot": 0,
        "tle_line1": "1 34024U 93036HK  25340.41428178  .00001042  00000+0  37108-3 0  9991",
        "tle_line2": "2 34024  74.0462 327.5877 0020747  19.9494 130.6524 14.35385319879336"
      },
      "geometry": {
        "type": "Point",
        "coordinates": [
          -32.20082111796375,
          4.121652062990495
        ]
      }
    },
    {
      "type": "Feature",
      "properties": {
        "norad_id": 34026,
        "name": "COSMOS 2251 DEB",
        "group": "cosmos-2251-debris",
        "lat": -72.93442036945076,
        "lon": -84.69055060828937,
        "alt_km": 877.7166697706525,
        "timestamp": "2025-12-06T22:38:43.122551+00:00",
        "meta_object_name": "COSMOS 2251 DEB",
        "meta_object_id": "1993-036HM",
        "meta_epoch": "2025-12-06T11:32:23.374176",
        "meta_mean_motion": 13.65292477,
        "meta_eccentricity": 0.03510373,
        "meta_inclination": 73.7677,
        "meta_ra_of_asc_node": 347.694,
        "meta_arg_of_pericenter": 218.6326,
        "meta_mean_anomaly": 299.8471,
        "meta_ephemeris_type": 0,
        "meta_classification_type": "U",
        "meta_norad_cat_id": 34026,
        "meta_element_set_no": 999,
        "meta_rev_at_epoch": 83446,
        "meta_bstar": 0.001710448,
        "meta_mean_motion_dot": 2.094e-05,
        "meta_mean_motion_ddot": 0,
        "tle_line1": "1 34026U 93036HM  25340.48082609  .00002094  00000+0  17104-2 0  9996",
        "tle_line2": "2 34026  73.7677 347.6940 0351037 218.6326 299.8471 13.65292477834465"
      },
      "geometry": {
        "type": "Point",
        "coordinates": [
          -84.69055060828937,
          -72.93442036945076
        ]
      }
    },
    {
      "type": "Feature",
      "properties": {
        "norad_id": 34028,
        "name": "COSMOS 2251 DEB",
        "group": "cosmos-2251-debris",
        "lat": 37.793207049113995,
        "lon": 163.18118080756193,
        "alt_km": 769.4264628425262,
        "timestamp": "2025-12-06T22:38:43.122562+00:00",
        "meta_object_name": "COSMOS 2251 DEB",
        "meta_object_id": "1993-036HP",
        "meta_epoch": "2025-12-06T11:25:28.058016",
        "meta_mean_motion": 13.20617755,
        "meta_eccentricity": 0.05439185,
        "meta_inclination": 73.8836,
        "meta_ra_of_asc_node": 356.8538,
        "meta_arg_of_pericenter": 135.7727,
        "meta_mean_anomaly": 301.9831,
        "meta_ephemeris_type": 0,
        "meta_classification_type": "U",
        "meta_norad_cat_id": 34028,
        "meta_element_set_no": 999,
        "meta_rev_at_epoch": 80925,
        "meta_bstar": 0.00024082485,
        "meta_mean_motion_dot": 1.96e-06,
        "meta_mean_motion_ddot": 0,
        "tle_line1": "1 34028U 93036HP  25340.47601919  .00000196  00000+0  24082-3 0  9993",
        "tle_line2": "2 34028  73.8836 356.8538 0543918 135.7727 301.9831 13.20617755809250"
      },
      "geometry": {
        "type": "Point",
        "coordinates": [
          163.18118080756193,
          37.793207049113995
        ]
      }
    },
    {
      "type": "Feature",
      "properties": {
        "norad_id": 34031,
        "name": "COSMOS 2251 DEB",
        "group": "cosmos-2251-debris",
        "lat": 43.8663030730706,
        "lon": 162.77392970971275,
        "alt_km": 702.7281837727105,
        "timestamp": "2025-12-06T22:38:43.122572+00:00",
        "meta_object_name": "COSMOS 2251 DEB",
        "meta_object_id": "1993-036HS",
        "meta_epoch": "2025-12-06T11:03:29.380608",
        "meta_mean_motion": 14.59570785,
        "meta_eccentricity": 0.00229685,
        "meta_inclination": 74.0119,
        "meta_ra_of_asc_node": 147.6988,
        "meta_arg_of_pericenter": 268.271,
        "meta_mean_anomaly": 121.9512,
        "meta_ephemeris_type": 0,
        "meta_classification_type": "U",
        "meta_norad_cat_id": 34031,
        "meta_element_set_no": 999,
        "meta_rev_at_epoch": 88474,
        "meta_bstar": 0.0022696142,
        "meta_mean_motion_dot": 0.00010817,
        "meta_mean_motion_ddot": 0,
        "tle_line1": "1 34031U 93036HS  25340.46075672  .00010817  00000+0  22696-2 0  9996",
        "tle_line2": "2 34031  74.0119 147.6988 0022968 268.2710 121.9512 14.59570785884744"
      },
      "geometry": {
        "type": "Point",
        "coordinates": [
          162.77392970971275,
          43.8663030730706
        ]
      }
    },
    {
      "type": "Feature",
      "properties": {
        "norad_id": 34035,
        "name": "COSMOS 2251 DEB",
        "group": "cosmos-2251-debris",
        "lat": 10.184692069201489,
        "lon": 2.981417063850488,
        "alt_km": 689.7189715707673,
        "timestamp": "2025-12-06T22:38:43.122582+00:00",
        "meta_object_name": "COSMOS 2251 DEB",
        "meta_object_id": "1993-036HW",
        "meta_epoch": "2025-12-06T06:39:33.255072",
        "meta_mean_motion": 14.51819955,
        "meta_eccentricity": 0.00443046,
        "meta_inclination": 74.0656,
        "meta_ra_of_asc_node": 1.2911,
        "meta_arg_of_pericenter": 4.2983,
        "meta_mean_anomaly": 126.4132,
        "meta_ephemeris_type": 0,
        "meta_classification_type": "U",
        "meta_norad_cat_id": 34035,
        "meta_element_set_no": 999,
        "meta_rev_at_epoch": 87872,
        "meta_bstar": 0.0026317984,
        "meta_mean_motion_dot": 0.00010716,
        "meta_mean_motion_ddot": 0,
        "tle_line1": "1 34035U 93036HW  25340.27746823  .00010716  00000+0  26318-2 0  9995",
        "tle_line2": "2 34035  74.0656   1.2911 0044304   4.2983 126.4132 14.51819955878729"
      },
      "geometry": {
        "type": "Point",
        "coordinates": [
          2.981417063850488,
          10.184692069201489
        ]
      }
    }
  ]
}